{
    "week": 293,
    "satellites": [
        {
            "Name": "BEIDOU-3 M28 (C50)",
            "Line1": "1 58654U 23207A   24327.44209207 -.00000018  00000+0  00000+0 0  9996",
            "Line2": "2 58654  55.2450  81.6758 0001786 238.4502 121.5190  1.86232061  6196",
            "SatelliteNumber": "58654",
            "Classification": "U",
            "LaunchYear": "23",
            "LaunchNumber": "207",
            "PieceOfLaunch": "A",
            "EpochYear": "24",
            "EpochDay": 327.44209207,
            "FirstDerivativeMeanMotion": -1.8e-07,
            "SecondDerivativeMeanMotion": "00000+0",
            "BSTAR": "00000+0",
            "SetNumber": "999",
            "Inclination": 55.245,
            "RAAN": 81.6758,
            "Eccentricity": 0.0001786,
            "ArgumentOfPerigee": 238.4502,
            "MeanAnomaly": 121.519,
            "MeanMotion": 1.86232061,
            "RevolutionNumber": "619"
        },
        {
            "Name": "BEIDOU-3 M26 (C48)",
            "Line1": "1 58655U 23207B   24327.77835801 -.00000019  00000+0  00000+0 0  9999",
            "Line2": "2 58655  55.2473  81.6500 0003238 231.2688 128.6892  1.86231549  6183",
            "SatelliteNumber": "58655",
            "Classification": "U",
            "LaunchYear": "23",
            "LaunchNumber": "207",
            "PieceOfLaunch": "B",
            "EpochYear": "24",
            "EpochDay": 327.77835801,
            "FirstDerivativeMeanMotion": -1.9e-07,
            "SecondDerivativeMeanMotion": "00000+0",
            "BSTAR": "00000+0",
            "SetNumber": "999",
            "Inclination": 55.2473,
            "RAAN": 81.65,
            "Eccentricity": 0.0003238,
            "ArgumentOfPerigee": 231.2688,
            "MeanAnomaly": 128.6892,
            "MeanMotion": 1.86231549,
            "RevolutionNumber": "618"
        }
    ]
}